AKARI (ASTRO-F)         
1 28939U 06005A   09159.55330592  .00000035  00000-0  17749-4 0    90
2 28939  98.2441 162.8704 0007787 201.0406 159.0463 14.57543872174838
FORMOSAT-3 FM6          
1 29047U 06011A   09159.17637728  .00000289  00000-0  13350-3 0  9719
2 29047  71.9815  39.5832 0052101 160.8164 199.4957 14.27108417166440
FORMOSAT-3 FM1          
1 29048U 06011B   09159.06818573  .00000390  00000-0  17471-3 0   180
2 29048  71.9686 315.2758 0044626 110.4962 250.0957 14.27118915168909
FORMOSAT-3 FM5          
1 29049U 06011C   09159.22540369  .00000361  00000-0  16364-3 0  9585
2 29049  72.0216 103.9752 0036111 174.8174 185.3337 14.27123793164702
FORMOSAT-3 FM3          
1 29050U 06011D   09159.39553180  .00001098  00000-0  26646-3 0  2417
2 29050  72.0090 282.9558 0051685  58.3262 302.2892 14.54047253169968
FORMOSAT-3 FM4          
1 29051U 06011E   09159.11667889  .00000373  00000-0  16522-3 0   213
2 29051  72.0069  13.2199 0069055  41.0369 319.5913 14.27120880167273
FORMOSAT-3 FM2          
1 29052U 06011F   09159.16466505  .00000360  00000-0  16273-3 0   366
2 29052  72.0356  75.1133 0040750 144.1680 216.2180 14.27120384165580
CLOUDSAT                
1 29107U 06016A   09159.20680414 -.00000063  00000-0 -39873-5 0    22
2 29107  98.1785 103.8689 0001067  65.2510 294.8803 14.57127034165568
CALIPSO                 
1 29108U 06016B   09159.20701484  .00000036  00000-0  17926-4 0  9980
2 29108  98.1780 103.9192 0001271  75.8029 284.3313 14.57127450165543
HINODE (SOLAR-B)        
1 29479U 06041A   09159.92031020  .00000107  00000-0  29988-4 0  8743
2 29479  98.0804 164.6667 0016561  64.0428 296.2490 14.62903073144771
SJ-6C                   
1 29505U 06046A   09160.12161056  .00000288  00000-0  34932-4 0  9550
2 29505  97.6872 167.1711 0004679  92.2084 267.9673 14.90655941142884
SJ-6D                   
1 29506U 06046B   09160.15579718 -.00000171  00000-0 -12239-4 0  9472
2 29506  97.6897 166.3138 0002874 122.0262 238.1225 14.89958872142825
COROT                   
1 29678U 06063A   09159.67745534  .00000208  00000-0  13837-3 0  8097
2 29678  89.9222  12.1556 0005261 150.5598 209.5910 13.98094725124925
AIM                     
1 31304U 07015A   09160.24762537  .00000954  00000-0  99289-4 0  7230
2 31304  97.8011 260.9744 0010530 244.8622 115.1522 14.92135504115613
FGRST (GLAST)           
1 33053U 08029A   09159.04146244  .00000278  00000-0  00000+0 0  2609
2 33053  25.5832  48.4452 0014095  35.4971 324.6513 15.04934722 54501
KORONAS-FOTON           
1 33504U 09003A   09160.24629385 -.00000199  00000-0 -15946-4 0  1051
2 33504  82.4778 232.8007 0017996 103.8276 256.4953 15.05273206 19515
